OBJECT_NAME,OBJECT_ID,EPOCH,MEAN_MOTION,ECCENTRICITY,INCLINATION,RA_OF_ASC_NODE,ARG_OF_PERICENTER,MEAN_ANOMALY,EPHEMERIS_TYPE,CLASSIFICATION_TYPE,NORAD_CAT_ID,ELEMENT_SET_NO,REV_AT_EPOCH,BSTAR,MEAN_MOTION_DOT,MEAN_MOTION_DDOT
STARLINK-1169,2020-006T,2025-11-05T05:34:57.960192,15.06402523,.00013582,53.0522,125.3294,92.0452,268.0692,0,U,45061,999,31770,.5068577E-4,.474E-5,0
STARLINK-1171,2020-006U,2025-11-05T00:00:02.999808,15.33545143,.00004058,53.0522,123.2403,11.5691,57.0101,0,U,45062,999,580,.27566719E-2,.91395E-3,0
STARLINK-1133,2020-006W,2025-11-05T03:56:47.278176,15.06392952,.00015297,53.0540,105.6304,88.8113,271.3051,0,U,45064,999,31797,.3434706E-4,.23E-5,0
STARLINK-1167,2020-006AD,2025-11-04T20:36:14.824224,15.06398904,.0001272,53.0545,107.0074,93.4756,266.6379,0,U,45071,999,31792,.13834362E-3,.178E-4,0
STARLINK-1168,2020-006AE,2025-11-04T20:41:32.078976,15.06401368,.00013903,53.0526,106.9894,91.6259,268.4890,0,U,45072,999,31792,.26160849E-3,.3617E-4,0
STARLINK-1172,2020-006AG,2025-11-05T03:19:37.808256,15.06395233,.00012396,53.0536,105.7501,82.8853,277.2277,0,U,45074,999,31796,.78510328E-4,.888E-5,0
STARLINK-1153,2020-006AN,2025-11-04T20:25:36.761952,15.06411199,.00014865,53.0524,107.0389,89.2773,270.8386,0,U,45080,999,31792,.30288556E-3,.4234E-4,0
STARLINK-1151,2020-006AP,2025-11-05T04:02:04.791264,15.06410163,.00008037,53.0497,105.6900,99.0639,261.0441,0,U,45081,999,31797,.22729196E-3,.3107E-4,0
STARLINK-1190,2020-006AR,2025-11-05T08:00:03.000384,15.93151788,.00040713,53.0393,52.6287,307.3522,262.4079,0,U,45083,999,591,.84339921E-3,.301336E-2,.45839979E-4
STARLINK-1185,2020-006AV,2025-11-05T01:52:03.111456,15.06395457,.00012866,53.0545,86.0202,87.5037,272.6099,0,U,45087,999,31824,.48318187E-4,.438E-5,0
STARLINK-1183,2020-006AW,2025-11-04T20:01:44.236128,15.06397401,.00013793,53.0538,87.1143,91.3213,268.7934,0,U,45088,999,31820,.73162477E-4,.808E-5,0
STARLINK-1142,2020-006BB,2025-11-05T08:00:03.000384,15.63071688,.00054789,53.0350,16.2137,9.3504,59.4377,0,U,45093,999,590,.12265347E-2,.114858E-2,0
STARLINK-1152,2020-006BE,2025-11-04T17:21:04.562208,15.24494737,.0006173,53.0526,69.2989,201.9747,158.0986,0,U,45096,999,31844,.11659803E-2,.28822E-3,0
STARLINK-1184,2020-006BG,2025-11-04T18:47:25.773216,15.06399497,.00013191,53.0524,87.3449,89.3909,270.7231,0,U,45098,999,31819,.82705729E-4,.951E-5,0
STARLINK-1193,2020-006BJ,2025-11-04T18:42:06.617664,15.06406770,.00014964,53.0522,87.3587,98.0324,262.0834,0,U,45100,999,31819,-.24487281E-4,-.646E-5,0
ONEWEB-0013,2020-008A,2025-11-05T03:09:46.015776,13.09434213,.00009145,87.8477,98.0731,134.7391,225.3810,0,U,45131,999,27674,-.19939103E-2,-.674E-5,0
ONEWEB-0017,2020-008B,2025-11-05T02:52:09.098400,13.10375337,.00018475,87.8787,80.9410,97.0341,263.0996,0,U,45132,999,27860,.11512732E-2,.415E-5,0
ONEWEB-0020,2020-008C,2025-11-05T02:09:05.271840,13.10372983,.00015402,87.8791,80.9321,90.8227,269.3077,0,U,45133,999,27899,-.18889907E-2,-.647E-5,0
ONEWEB-0021,2020-008D,2025-11-05T02:30:37.454688,13.10373906,.00014239,87.8788,80.9610,103.6300,256.4986,0,U,45134,999,27930,.77065994E-3,.282E-5,0
ONEWEB-0023,2020-008F,2025-11-05T02:46:09.834240,13.10375196,.0001384,87.8783,80.9408,92.8584,267.2702,0,U,45136,999,27873,.68095521E-3,.25E-5,0
ONEWEB-0024,2020-008G,2025-11-05T02:06:42.210720,13.10371038,.00017474,87.8802,80.9086,97.8817,262.2508,0,U,45137,999,27889,-.20494477E-2,-.703E-5,0
ONEWEB-0025,2020-008H,2025-11-04T15:32:04.115904,13.10377882,.0001318,87.8796,81.0033,108.0078,252.1193,0,U,45138,999,27916,-.43188E-3,-.138E-5,0
ONEWEB-0026,2020-008J,2025-11-05T01:47:54.903264,13.11420764,.00017576,87.8858,65.6926,96.7737,263.3591,0,U,45139,999,28173,.10100829E-2,.371E-5,0
ONEWEB-0028,2020-008K,2025-11-05T06:15:15.932448,13.11416411,.00012195,87.8850,65.6730,123.5451,236.5794,0,U,45140,999,27927,.63480414E-4,.35E-6,0
ONEWEB-0032,2020-008L,2025-11-05T02:54:32.048064,13.10375470,.00013887,87.8785,80.9404,100.9115,259.2169,0,U,45141,999,27895,.13896316E-2,.498E-5,0
ONEWEB-0033,2020-008M,2025-11-04T18:58:50.468160,13.10374557,.00017943,87.8782,81.0182,96.9390,263.1941,0,U,45142,999,27882,-.16263633E-2,-.555E-5,0
ONEWEB-0035,2020-008N,2025-11-05T06:42:48.139776,13.10375194,.00016911,87.8783,80.9219,96.8449,263.2871,0,U,45143,999,27861,.17723585E-2,.631E-5,0
ONEWEB-0036,2020-008P,2025-11-05T06:28:27.149952,13.10377045,.00012502,87.8796,80.8787,100.6410,259.4858,0,U,45144,999,27904,.11157032E-2,.402E-5,0
ONEWEB-0038,2020-008Q,2025-11-05T05:42:31.435776,13.11416653,.00029432,87.8854,65.6565,130.7294,229.4090,0,U,45145,999,28097,.12867117E-2,.469E-5,0
ONEWEB-0039,2020-008R,2025-11-05T02:23:25.397664,13.10376513,.00012387,87.8794,80.9281,116.2411,243.8844,0,U,45146,999,27881,-.14409726E-2,-.49E-5,0
