45061,STARLINK-1169,2020,95.59,227.0,+,53.05,Active,1,LEO,USA,USA,Commercial,Communications,Falcon,1 45061U 20006T   25309.23261528  .00000474  00000+0  50686-4 0  9995,2 45061  53.0522 125.3294 0001358  92.0452 268.0692 15.06402523317709,15.06402523,0.0001358,LEO
45062,STARLINK-1171,2020,93.9,227.0,P,53.05,Active,1,LEO,USA,USA,Commercial,Communications,Falcon,1 45062U 20006U   25309.00003472  .00091395  00000+0  27567-2 0  9995,2 45062  53.0522 123.2403 0000405  11.5691  57.0101 15.33545143  5804,15.33545143,4.05e-05,LEO
45064,STARLINK-1133,2020,95.59,227.0,+,53.05,Active,1,LEO,USA,USA,Commercial,Communications,Falcon,1 45064U 20006W   25309.16443609  .00000230  00000+0  34347-4 0  9998,2 45064  53.0540 105.6304 0001529  88.8113 271.3051 15.06392952317971,15.06392952,0.0001529,LEO
45071,STARLINK-1167,2020,95.59,227.0,+,53.05,Active,1,LEO,USA,USA,Commercial,Communications,Falcon,1 45071U 20006AD  25308.85850491  .00001780  00000+0  13834-3 0  9990,2 45071  53.0545 107.0074 0001272  93.4756 266.6379 15.06398904317922,15.06398904,0.0001272,LEO
45072,STARLINK-1168,2020,95.59,227.0,+,53.05,Active,1,LEO,USA,USA,Commercial,Communications,Falcon,1 45072U 20006AE  25308.86217684  .00003617  00000+0  26161-3 0  9991,2 45072  53.0526 106.9894 0001390  91.6259 268.4890 15.06401368317926,15.06401368,0.000139,LEO
45074,STARLINK-1172,2020,95.59,227.0,+,53.05,Active,1,LEO,USA,USA,Commercial,Communications,Falcon,1 45074U 20006AG  25309.13863204  .00000888  00000+0  78510-4 0  9992,2 45074  53.0536 105.7501 0001239  82.8853 277.2277 15.06395233317969,15.06395233,0.0001239,LEO
45080,STARLINK-1153,2020,95.59,227.0,+,53.05,Active,1,LEO,USA,USA,Commercial,Communications,Falcon,1 45080U 20006AN  25308.85111993  .00004234  00000+0  30289-3 0  9997,2 45080  53.0524 107.0389 0001486  89.2773 270.8386 15.06411199317924,15.06411199,0.0001486,LEO
45081,STARLINK-1151,2020,95.59,227.0,+,53.06,Active,1,LEO,USA,USA,Commercial,Communications,Falcon,1 45081U 20006AP  25309.16811101  .00003107  00000+0  22729-3 0  9999,2 45081  53.0497 105.6900 0000803  99.0639 261.0441 15.06410163317978,15.06410163,8.03e-05,LEO
45083,STARLINK-1190,2020,90.41,227.0,P,53.04,Active,1,LEO,USA,USA,Commercial,Communications,Falcon,1 45083U 20006AR  25309.33336806  .00301336  45840-4  84340-3 0  9992,2 45083  53.0393  52.6287 0004071 307.3522 262.4079 15.93151788  5912,15.93151788,0.0004071,LEO
45087,STARLINK-1185,2020,95.59,227.0,+,53.05,Active,1,LEO,USA,USA,Commercial,Communications,Falcon,1 45087U 20006AV  25309.07781379  .00000438  00000+0  48318-4 0  9995,2 45087  53.0545  86.0202 0001286  87.5037 272.6099 15.06395457318241,15.06395457,0.0001286,LEO
45088,STARLINK-1183,2020,95.59,227.0,+,53.05,Active,1,LEO,USA,USA,Commercial,Communications,Falcon,1 45088U 20006AW  25308.83453977  .00000808  00000+0  73162-4 0  9995,2 45088  53.0538  87.1143 0001379  91.3213 268.7934 15.06397401318203,15.06397401,0.0001379,LEO
45093,STARLINK-1142,2020,92.14,227.0,P,53.03,Active,1,LEO,USA,USA,Commercial,Communications,Falcon,1 45093U 20006BB  25309.33336806  .00114858  00000+0  12265-2 0  9994,2 45093  53.0350  16.2137 0005478   9.3504  59.4377 15.63071688  5908,15.63071688,0.0005478,LEO
45096,STARLINK-1152,2020,94.46,227.0,P,53.04,Active,1,LEO,USA,USA,Commercial,Communications,Falcon,1 45096U 20006BE  25308.72296947  .00028822  00000+0  11660-2 0  9993,2 45096  53.0526  69.2989 0006173 201.9747 158.0986 15.24494737318440,15.24494737,0.0006173,LEO
45098,STARLINK-1184,2020,95.59,227.0,+,53.05,Active,1,LEO,USA,USA,Commercial,Communications,Falcon,1 45098U 20006BG  25308.78293719  .00000951  00000+0  82706-4 0  9999,2 45098  53.0524  87.3449 0001319  89.3909 270.7231 15.06399497318191,15.06399497,0.0001319,LEO
45100,STARLINK-1193,2020,95.59,227.0,+,53.05,Active,1,LEO,USA,USA,Commercial,Communications,Falcon,1 45100U 20006BJ  25308.77924326 -.00000646  00000+0 -24487-4 0  9992,2 45100  53.0522  87.3587 0001496  98.0324 262.0834 15.06406770318196,15.0640677,0.0001496,LEO
45131,ONEWEB-0013,2020,109.97,148.0,+,87.85,Active,1,LEO,Kazakhstan,UK,Commercial,Communications,Soyuz,1 45131U 20008A   25309.13178259 -.00000674  00000+0 -19939-2 0  9990,2 45131  87.8477  98.0731 0000914 134.7391 225.3810 13.09434213276744,13.09434213,9.14e-05,LEO
45132,ONEWEB-0017,2020,109.89,148.0,+,87.88,Active,1,LEO,Kazakhstan,UK,Commercial,Communications,Soyuz,1 45132U 20008B   25309.11954975  .00000415  00000+0  11513-2 0  9997,2 45132  87.8787  80.9410 0001847  97.0341 263.0996 13.10375337278609,13.10375337,0.0001847,LEO
45133,ONEWEB-0020,2020,109.89,148.0,+,87.88,Active,1,LEO,Kazakhstan,UK,Commercial,Communications,Soyuz,1 45133U 20008C   25309.08964435 -.00000647  00000+0 -18890-2 0  9990,2 45133  87.8791  80.9321 0001540  90.8227 269.3077 13.10372983278995,13.10372983,0.000154,LEO
45134,ONEWEB-0021,2020,109.89,148.0,+,87.88,Active,1,LEO,Kazakhstan,UK,Commercial,Communications,Soyuz,1 45134U 20008D   25309.10460017  .00000282  00000+0  77066-3 0  9995,2 45134  87.8788  80.9610 0001423 103.6300 256.4986 13.10373906279306,13.10373906,0.0001423,LEO
45136,ONEWEB-0023,2020,109.89,148.0,+,87.88,Active,1,LEO,Kazakhstan,UK,Commercial,Communications,Soyuz,1 45136U 20008F   25309.11539160  .00000250  00000+0  68096-3 0  9992,2 45136  87.8783  80.9408 0001384  92.8584 267.2702 13.10375196278732,13.10375196,0.0001384,LEO
45137,ONEWEB-0024,2020,109.89,148.0,+,87.88,Active,1,LEO,Kazakhstan,UK,Commercial,Communications,Soyuz,1 45137U 20008G   25309.08798855 -.00000703  00000+0 -20494-2 0  9991,2 45137  87.8802  80.9086 0001747  97.8817 262.2508 13.10371038278891,13.10371038,0.0001747,LEO
45138,ONEWEB-0025,2020,109.89,148.0,+,87.88,Active,1,LEO,Kazakhstan,UK,Commercial,Communications,Soyuz,1 45138U 20008H   25308.64726986 -.00000138  00000+0 -43188-3 0  9997,2 45138  87.8796  81.0033 0001318 108.0078 252.1193 13.10377882279168,13.10377882,0.0001318,LEO
45139,ONEWEB-0026,2020,109.8,148.0,+,87.89,Active,1,LEO,Kazakhstan,UK,Commercial,Communications,Soyuz,1 45139U 20008J   25309.07494101  .00000371  00000+0  10101-2 0  9992,2 45139  87.8858  65.6926 0001757  96.7737 263.3591 13.11420764281730,13.11420764,0.0001757,LEO
45140,ONEWEB-0028,2020,109.8,148.0,+,87.88,Active,1,LEO,Kazakhstan,UK,Commercial,Communications,Soyuz,1 45140U 20008K   25309.26060107  .00000035  00000+0  63480-4 0  9997,2 45140  87.8850  65.6730 0001219 123.5451 236.5794 13.11416411279279,13.11416411,0.0001219,LEO
45141,ONEWEB-0032,2020,109.89,148.0,+,87.88,Active,1,LEO,Kazakhstan,UK,Commercial,Communications,Soyuz,1 45141U 20008L   25309.12120426  .00000498  00000+0  13896-2 0  9991,2 45141  87.8785  80.9404 0001388 100.9115 259.2169 13.10375470278958,13.1037547,0.0001388,LEO
45142,ONEWEB-0033,2020,109.89,148.0,+,87.88,Active,1,LEO,Kazakhstan,UK,Commercial,Communications,Soyuz,1 45142U 20008M   25308.79086190 -.00000555  00000+0 -16264-2 0  9991,2 45142  87.8782  81.0182 0001794  96.9390 263.1941 13.10374557278824,13.10374557,0.0001794,LEO
45143,ONEWEB-0035,2020,109.89,148.0,+,87.88,Active,1,LEO,Kazakhstan,UK,Commercial,Communications,Soyuz,1 45143U 20008N   25309.27972384  .00000631  00000+0  17724-2 0  9990,2 45143  87.8783  80.9219 0001691  96.8449 263.2871 13.10375194278613,13.10375194,0.0001691,LEO
45144,ONEWEB-0036,2020,109.89,148.0,+,87.88,Active,1,LEO,Kazakhstan,UK,Commercial,Communications,Soyuz,1 45144U 20008P   25309.26975868  .00000402  00000+0  11157-2 0  9990,2 45144  87.8796  80.8787 0001250 100.6410 259.4858 13.10377045279047,13.10377045,0.000125,LEO
45145,ONEWEB-0038,2020,109.8,148.0,+,87.89,Active,1,LEO,Kazakhstan,UK,Commercial,Communications,Soyuz,1 45145U 20008Q   25309.23786384  .00000469  00000+0  12867-2 0  9993,2 45145  87.8854  65.6565 0002943 130.7294 229.4090 13.11416653280971,13.11416653,0.0002943,LEO
45146,ONEWEB-0039,2020,109.89,148.0,+,87.88,Active,1,LEO,Kazakhstan,UK,Commercial,Communications,Soyuz,1 45146U 20008R   25309.09959951 -.00000490  00000+0 -14410-2 0  9992,2 45146  87.8794  80.9281 0001238 116.2411 243.8844 13.10376513278812,13.10376513,0.0001238,LEO
